OBJECT_NAME,OBJECT_ID,EPOCH,MEAN_MOTION,ECCENTRICITY,INCLINATION,RA_OF_ASC_NODE,ARG_OF_PERICENTER,MEAN_ANOMALY,EPHEMERIS_TYPE,CLASSIFICATION_TYPE,NORAD_CAT_ID,ELEMENT_SET_NO,REV_AT_EPOCH,BSTAR,MEAN_MOTION_DOT,MEAN_MOTION_DDOT
SAUDISAT 1C (SO-50),2002-058C,2026-07-08T01:24:59.474880,14.83089154,.00747268,64.5519,64.4071,258.5866,100.6840,0,U,27607,999,26755,.85741405E-4,.576E-5,0
SAUDISAT 2,2004-025F,2026-07-08T06:05:34.790496,14.56695706,.00237114,98.5515,189.7808,230.2232,129.6877,0,U,28371,999,16881,.50785851E-4,.178E-5,0
SAUDISAT 3,2007-012B,2026-07-07T20:43:07.831776,14.71437510,.00151068,98.1464,139.2785,156.8633,203.3257,0,U,31118,999,3078,.38392345E-4,.187E-5,0
PISAT,2016-059B,2026-07-08T11:08:05.616096,14.69021756,.00300985,97.8186,189.0030,135.4278,224.9356,0,U,41784,999,52286,.13128876E-3,.728E-5,0
FLYING LAPTOP,2017-042G,2026-07-08T13:57:34.712928,15.01284426,.00199224,97.4784,344.3054,53.3776,306.9277,0,U,42831,999,48966,.20217195E-3,.2552E-4,0
SALSAT,2020-068K,2026-07-08T11:12:30.073536,15.30108644,.00085164,97.8859,193.8315,218.2627,141.8009,0,U,46495,999,31861,.17202586E-3,.4931E-4,0
