SAUDISAT 1C (SO-50)     
1 27607U 02058C   26189.05902170  .00000576  00000+0  85741-4 0  9993
2 27607  64.5519  64.4071 0074726 258.5866 100.6840 14.83089154267559
SAUDISAT 2              
1 28371U 04025F   26189.25387489  .00000178  00000+0  50786-4 0  9999
2 28371  98.5515 189.7808 0023711 230.2232 129.6877 14.56695706168818
SAUDISAT 3              
1 31118U 07012B   26188.86328509  .00000187  00000+0  38392-4 0  9994
2 31118  98.1464 139.2785 0015106 156.8633 203.3257 14.71437510 30781
PISAT                   
1 41784U 16059B   26189.46395389  .00000728  00000+0  13129-3 0  9993
2 41784  97.8186 189.0030 0030098 135.4278 224.9356 14.69021756522861
FLYING LAPTOP           
1 42831U 17042G   26189.58165177  .00002552  00000+0  20217-3 0  9996
2 42831  97.4784 344.3054 0019922  53.3776 306.9277 15.01284426489666
SALSAT                  
1 46495U 20068K   26189.46701474  .00004931  00000+0  17203-3 0  9995
2 46495  97.8859 193.8315 0008516 218.2627 141.8009 15.30108644318618
